IRIDIUM 119             
1 42959U 17061E   25322.49554127  .00000377  00000+0  12762-3 0  9992
2 42959  86.3949 113.3503 0001965  82.3530 277.7889 14.34216793424613
IRIDIUM 107             
1 42960U 17061F   25322.44480017  .00000259  00000+0  85397-4 0  9999
2 42960  86.3948 113.3913 0001507  87.6053 272.5315 14.34218333424618
IRIDIUM 132             
1 42961U 17061G   25322.45114222  .00000241  00000+0  78964-4 0  9996
2 42961  86.3948 113.3696 0001903  92.1371 268.0042 14.34217535424611
IRIDIUM 136             
1 42962U 17061H   25322.48285550  .00000395  00000+0  13395-3 0  9999
2 42962  86.3946 113.3618 0001946  88.4026 271.7393 14.34216820424634
IRIDIUM 139             
1 42963U 17061J   25322.48920062  .00000431  00000+0  14688-3 0  9991
2 42963  86.3948 113.4177 0001807  92.5728 267.5675 14.34215752424649
IRIDIUM 125             
1 42964U 17061K   25322.47651559  .00000415  00000+0  14120-3 0  9996
2 42964  86.3950 113.4803 0001673  77.2116 282.9266 14.34215626424659
IRIDIUM 135             
1 43070U 17083A   25322.24133993  .00000455  00000+0  15526-3 0  9996
2 43070  86.3987  50.1833 0002159  95.5603 264.5839 14.34213989413911
IRIDIUM 138             
1 43071U 17083B   25322.33647868  .00000463  00000+0  15825-3 0  9999
2 43071  86.4000  49.8065 0002163  84.3914 275.7528 14.34214078413916
